{
  "norad_id": 59247,
  "name": "STARLINK-31424",
  "history": [
    {
      "epoch": "2026-03-28T13:40:18.327648Z",
      "apogee_km": 483.7613490275344,
      "perigee_km": 482.34108306681264,
      "latitude_deg": 1.5285496542158387e-05,
      "longitude_deg": 2.373536164744633,
      "height_km": 482.7066908473608,
      "semi_major_axis_km": 6861.188216047173,
      "eccentricity": 0.0001035,
      "inclination_deg": 43.004,
      "raan_deg": 33.4381,
      "arg_perigee_deg": 279.8403,
      "mean_anomaly_deg": 80.2332,
      "mean_motion_rev_day": 15.27579292
    }
  ]
}