{"fetched_at":"2026-03-30T06:02:59Z","count":15439,"tles":[{"name":"STARLINK-31424","line1":"1 59247U 24049S   26087.56965657  .00001347  00000+0  58465-4 0  9994","line2":"2 59247  43.0040  33.4381 0001035 279.8403  80.2332 15.27579292115323","category":"Starlink"}]}